{
  "type": "FeatureCollection",
  "features": [
    {
      "type": "Feature",
      "properties": {
        "norad_id": 2807,
        "name": "OPS 7218 (TRANSIT 16)",
        "group": "nnss",
        "lat": 16.494875830289736,
        "lon": -5.623981840611337,
        "alt_km": 1077.8790263222972,
        "timestamp": "2025-12-04T19:33:59.872598+00:00",
        "meta_object_name": "OPS 7218 (TRANSIT 16)",
        "meta_object_id": "1967-048A",
        "meta_epoch": "2025-12-04T07:05:44.140128",
        "meta_mean_motion": 13.50719871,
        "meta_eccentricity": 0.00215238,
        "meta_inclination": 89.6735,
        "meta_ra_of_asc_node": 354.2964,
        "meta_arg_of_pericenter": 136.8182,
        "meta_mean_anomaly": 234.7725,
        "meta_ephemeris_type": 0,
        "meta_classification_type": "U",
        "meta_norad_cat_id": 2807,
        "meta_element_set_no": 999,
        "meta_rev_at_epoch": 88162,
        "meta_bstar": 0.00026566985,
        "meta_mean_motion_dot": 1.81e-06,
        "meta_mean_motion_ddot": 0,
        "tle_line1": "1 02807U 67048A   25338.29564977  .00000181  00000+0  26567-3 0  9990",
        "tle_line2": "2 02807  89.6735 354.2964 0021523 136.8182 234.7725 13.50719871881629"
      },
      "geometry": {
        "type": "Point",
        "coordinates": [
          -5.623981840611337,
          16.494875830289736
        ]
      }
    },
    {
      "type": "Feature",
      "properties": {
        "norad_id": 2965,
        "name": "OPS 4947 (TRANSIT 17)",
        "group": "nnss",
        "lat": 3.8822305764377707,
        "lon": 25.090761197542108,
        "alt_km": 1071.0503085805349,
        "timestamp": "2025-12-04T19:33:59.872618+00:00",
        "meta_object_name": "OPS 4947 (TRANSIT 17)",
        "meta_object_id": "1967-092A",
        "meta_epoch": "2025-12-04T05:41:34.423008",
        "meta_mean_motion": 13.53450473,
        "meta_eccentricity": 0.00458088,
        "meta_inclination": 89.2506,
        "meta_ra_of_asc_node": 25.0838,
        "meta_arg_of_pericenter": 260.0683,
        "meta_mean_anomaly": 168.4895,
        "meta_ephemeris_type": 0,
        "meta_classification_type": "U",
        "meta_norad_cat_id": 2965,
        "meta_element_set_no": 999,
        "meta_rev_at_epoch": 86982,
        "meta_bstar": 0.00029150481,
        "meta_mean_motion_dot": 2.08e-06,
        "meta_mean_motion_ddot": 0,
        "tle_line1": "1 02965U 67092A   25338.23720397  .00000208  00000+0  29150-3 0  9999",
        "tle_line2": "2 02965  89.2506  25.0838 0045808 260.0683 168.4895 13.53450473869829"
      },
      "geometry": {
        "type": "Point",
        "coordinates": [
          25.090761197542108,
          3.8822305764377707
        ]
      }
    },
    {
      "type": "Feature",
      "properties": {
        "norad_id": 3133,
        "name": "OPS 7034 (TRANSIT 18)",
        "group": "nnss",
        "lat": -26.793896871568496,
        "lon": 93.60307059985807,
        "alt_km": 1019.5357115728129,
        "timestamp": "2025-12-04T19:33:59.872629+00:00",
        "meta_object_name": "OPS 7034 (TRANSIT 18)",
        "meta_object_id": "1968-012A",
        "meta_epoch": "2025-12-04T08:29:21.451200",
        "meta_mean_motion": 13.51562895,
        "meta_eccentricity": 0.00730726,
        "meta_inclination": 90.0271,
        "meta_ra_of_asc_node": 273.6155,
        "meta_arg_of_pericenter": 193.5437,
        "meta_mean_anomaly": 288.5138,
        "meta_ephemeris_type": 0,
        "meta_classification_type": "U",
        "meta_norad_cat_id": 3133,
        "meta_element_set_no": 999,
        "meta_rev_at_epoch": 56805,
        "meta_bstar": 0.00023367647,
        "meta_mean_motion_dot": 1.64e-06,
        "meta_mean_motion_ddot": 0,
        "tle_line1": "1 03133U 68012A   25338.35372050  .00000164  00000+0  23368-3 0  9998",
        "tle_line2": "2 03133  90.0271 273.6155 0073072 193.5437 288.5138 13.51562895568055"
      },
      "geometry": {
        "type": "Point",
        "coordinates": [
          93.60307059985807,
          -26.793896871568496
        ]
      }
    },
    {
      "type": "Feature",
      "properties": {
        "norad_id": 4507,
        "name": "NNSS 19 (TRANSIT 19)",
        "group": "nnss",
        "lat": -3.7614421717736817,
        "lon": 54.52784671452352,
        "alt_km": 1156.3882485672366,
        "timestamp": "2025-12-04T19:33:59.872640+00:00",
        "meta_object_name": "NNSS 19 (TRANSIT 19)",
        "meta_object_id": "1970-067A",
        "meta_epoch": "2025-12-04T06:12:26.286048",
        "meta_mean_motion": 13.51311721,
        "meta_eccentricity": 0.01711231,
        "meta_inclination": 90.0056,
        "meta_ra_of_asc_node": 234.5279,
        "meta_arg_of_pericenter": 318.1321,
        "meta_mean_anomaly": 40.6845,
        "meta_ephemeris_type": 0,
        "meta_classification_type": "U",
        "meta_norad_cat_id": 4507,
        "meta_element_set_no": 999,
        "meta_rev_at_epoch": 72107,
        "meta_bstar": 0.00033885106,
        "meta_mean_motion_dot": 2.49e-06,
        "meta_mean_motion_ddot": 0,
        "tle_line1": "1 04507U 70067A   25338.25863757  .00000249  00000+0  33885-3 0  9994",
        "tle_line2": "2 04507  90.0056 234.5279 0171123 318.1321  40.6845 13.51311721721073"
      },
      "geometry": {
        "type": "Point",
        "coordinates": [
          54.52784671452352,
          -3.7614421717736817
        ]
      }
    },
    {
      "type": "Feature",
      "properties": {
        "norad_id": 6909,
        "name": "NNSS 20 (TRANSIT 20)",
        "group": "nnss",
        "lat": 43.030412882884214,
        "lon": -104.69225342475104,
        "alt_km": 929.6023943555119,
        "timestamp": "2025-12-04T19:33:59.872651+00:00",
        "meta_object_name": "NNSS 20 (TRANSIT 20)",
        "meta_object_id": "1973-081A",
        "meta_epoch": "2025-12-04T07:06:04.212576",
        "meta_mean_motion": 13.71428658,
        "meta_eccentricity": 0.01564837,
        "meta_inclination": 89.8557,
        "meta_ra_of_asc_node": 255.1808,
        "meta_arg_of_pericenter": 103.3213,
        "meta_mean_anomaly": 258.5452,
        "meta_ephemeris_type": 0,
        "meta_classification_type": "U",
        "meta_norad_cat_id": 6909,
        "meta_element_set_no": 999,
        "meta_rev_at_epoch": 80245,
        "meta_bstar": 0.000354009,
        "meta_mean_motion_dot": 3.59e-06,
        "meta_mean_motion_ddot": 0,
        "tle_line1": "1 06909U 73081A   25338.29588209  .00000359  00000+0  35401-3 0  9999",
        "tle_line2": "2 06909  89.8557 255.1808 0156483 103.3213 258.5452 13.71428658802452"
      },
      "geometry": {
        "type": "Point",
        "coordinates": [
          -104.69225342475104,
          43.030412882884214
        ]
      }
    },
    {
      "type": "Feature",
      "properties": {
        "norad_id": 10457,
        "name": "TRANSAT",
        "group": "nnss",
        "lat": -77.82924649015541,
        "lon": -99.49057152194283,
        "alt_km": 1070.5723595131594,
        "timestamp": "2025-12-04T19:33:59.872661+00:00",
        "meta_object_name": "TRANSAT",
        "meta_object_id": "1977-106A",
        "meta_epoch": "2025-12-04T07:54:30.025152",
        "meta_mean_motion": 13.48941689,
        "meta_eccentricity": 0.00246344,
        "meta_inclination": 89.6483,
        "meta_ra_of_asc_node": 78.8947,
        "meta_arg_of_pericenter": 214.3065,
        "meta_mean_anomaly": 205.7501,
        "meta_ephemeris_type": 0,
        "meta_classification_type": "U",
        "meta_norad_cat_id": 10457,
        "meta_element_set_no": 999,
        "meta_rev_at_epoch": 36630,
        "meta_bstar": 0.00021655131,
        "meta_mean_motion_dot": 1.46e-06,
        "meta_mean_motion_ddot": 0,
        "tle_line1": "1 10457U 77106A   25338.32951418  .00000146  00000+0  21655-3 0  9994",
        "tle_line2": "2 10457  89.6483  78.8947 0024634 214.3065 205.7501 13.48941689366301"
      },
      "geometry": {
        "type": "Point",
        "coordinates": [
          -99.49057152194283,
          -77.82924649015541
        ]
      }
    },
    {
      "type": "Feature",
      "properties": {
        "norad_id": 12458,
        "name": "NOVA 1",
        "group": "nnss",
        "lat": 9.449213305947374,
        "lon": -88.52750950569173,
        "alt_km": 1165.7948097176877,
        "timestamp": "2025-12-04T19:33:59.872671+00:00",
        "meta_object_name": "NOVA 1",
        "meta_object_id": "1981-044A",
        "meta_epoch": "2025-12-04T08:05:42.491904",
        "meta_mean_motion": 13.23277067,
        "meta_eccentricity": 0.0015613,
        "meta_inclination": 89.8522,
        "meta_ra_of_asc_node": 91.5039,
        "meta_arg_of_pericenter": 124.6939,
        "meta_mean_anomaly": 289.9394,
        "meta_ephemeris_type": 0,
        "meta_classification_type": "U",
        "meta_norad_cat_id": 12458,
        "meta_element_set_no": 999,
        "meta_rev_at_epoch": 15075,
        "meta_bstar": 0.00015908377,
        "meta_mean_motion_dot": 7.6e-07,
        "meta_mean_motion_ddot": 0,
        "tle_line1": "1 12458U 81044A   25338.33729736  .00000076  00000+0  15908-3 0  9996",
        "tle_line2": "2 12458  89.8522  91.5039 0015613 124.6939 289.9394 13.23277067150753"
      },
      "geometry": {
        "type": "Point",
        "coordinates": [
          -88.52750950569173,
          9.449213305947374
        ]
      }
    }
  ]
}